YAOGAN-43 01D           
1 60461U 24148D   26068.43560480  .00010676  00000+0  37766-3 0  9999
2 60461  35.0010  61.7102 0002556 326.2473  33.8080 15.28369377 87008
STARLINK-32339          
1 61640U 24191V   26068.25184897 -.00001814  00000+0 -56405-4 0  9999
2 61640  43.0042 156.6133 0000941 246.6830 113.3923 15.27579965 77462
