[{"OBJECT_NAME":"YAOGAN-43 01D","OBJECT_ID":"2024-148D","EPOCH":"2026-03-09T10:27:16.254720","MEAN_MOTION":15.28369377,"ECCENTRICITY":0.00025569,"INCLINATION":35.001,"RA_OF_ASC_NODE":61.7102,"ARG_OF_PERICENTER":326.2473,"MEAN_ANOMALY":33.808,"EPHEMERIS_TYPE":0,"CLASSIFICATION_TYPE":"U","NORAD_CAT_ID":60461,"ELEMENT_SET_NO":999,"REV_AT_EPOCH":8700,"BSTAR":0.00037765912,"MEAN_MOTION_DOT":0.00010676,"MEAN_MOTION_DDOT":0},{"OBJECT_NAME":"STARLINK-32339","OBJECT_ID":"2024-191V","EPOCH":"2026-03-09T06:02:39.751008","MEAN_MOTION":15.27579965,"ECCENTRICITY":9.418e-5,"INCLINATION":43.0042,"RA_OF_ASC_NODE":156.6133,"ARG_OF_PERICENTER":246.683,"MEAN_ANOMALY":113.3923,"EPHEMERIS_TYPE":0,"CLASSIFICATION_TYPE":"U","NORAD_CAT_ID":61640,"ELEMENT_SET_NO":999,"REV_AT_EPOCH":7746,"BSTAR":-5.6405284e-5,"MEAN_MOTION_DOT":-1.814e-5,"MEAN_MOTION_DDOT":0}]
